start=new Date('2022-10-23T00:00:00.000Z').valueOf();
sats=[{"MEAN_MOTION_DOT":"0.00000665","OBJECT_ID":"2021-017B","MEAN_ELEMENT_THEORY":"SGP4","MEAN_MOTION_DDOT":"0.0000000000000","EPHEMERIS_TYPE":"0","PERIOD":"95.592","TLE_LINE1":"1 47723U 21017B   22295.35713705  .00000665  00000-0  63573-4 0  9990","ELEMENT_SET_NO":"999","SEMIMAJOR_AXIS":"6925.361","ARG_OF_PERICENTER":"66.0933","LAUNCH_DATE":"2021-03-04","INCLINATION":"53.0557","DECAY_DATE":null,"SITE":"AFETR","OBJECT_TYPE":"PAYLOAD","GP_ID":"215891991","COUNTRY_CODE":"US","RCS_SIZE":"LARGE","REV_AT_EPOCH":"9282","EPOCH":"2022-10-22T08:34:16.641120","TLE_LINE2":"2 47723  53.0557 272.7636 0001720  66.0933 294.0237 15.06395995 92820","BSTAR":"0.00006357300000","ECCENTRICITY":"0.00017200","CLASSIFICATION_TYPE":"U","RA_OF_ASC_NODE":"272.7636","TIME_SYSTEM":"UTC","CENTER_NAME":"EARTH","APOAPSIS":"548.417","REF_FRAME":"TEME","NORAD_CAT_ID":"47723","FILE":"3629476","PERIAPSIS":"546.035","OBJECT_NAME":"STARLINK-2107","MEAN_ANOMALY":"294.0237","MEAN_MOTION":"15.06395995"},{"APOAPSIS":"548.635","CENTER_NAME":"EARTH","REF_FRAME":"TEME","FILE":"3629797","NORAD_CAT_ID":"47724","MEAN_ANOMALY":"313.2855","MEAN_MOTION":"15.06394713","OBJECT_NAME":"STARLINK-2116","PERIAPSIS":"545.825","OBJECT_TYPE":"PAYLOAD","DECAY_DATE":null,"SITE":"AFETR","COUNTRY_CODE":"US","GP_ID":"215924438","RCS_SIZE":"LARGE","REV_AT_EPOCH":"9283","EPOCH":"2022-10-22T15:49:30.851040","BSTAR":"0.00003618000000","TLE_LINE2":"2 47724  53.0550 271.4062 0002029  46.8304 313.2855 15.06394713 92832","CLASSIFICATION_TYPE":"U","ECCENTRICITY":"0.00020290","RA_OF_ASC_NODE":"271.4062","TIME_SYSTEM":"UTC","EPHEMERIS_TYPE":"0","PERIOD":"95.592","ELEMENT_SET_NO":"999","TLE_LINE1":"1 47724U 21017C   22295.65938485  .00000257  00000-0  36180-4 0  9999","SEMIMAJOR_AXIS":"6925.365","LAUNCH_DATE":"2021-03-04","ARG_OF_PERICENTER":"46.8304","INCLINATION":"53.0550","MEAN_MOTION_DOT":"0.00000257","OBJECT_ID":"2021-017C","MEAN_ELEMENT_THEORY":"SGP4","MEAN_MOTION_DDOT":"0.0000000000000"},{"APOAPSIS":"548.642","CENTER_NAME":"EARTH","REF_FRAME":"TEME","MEAN_ANOMALY":"319.3422","MEAN_MOTION":"15.06392484","OBJECT_NAME":"STARLINK-2125","PERIAPSIS":"545.831","FILE":"3629797","NORAD_CAT_ID":"47725","COUNTRY_CODE":"US","GP_ID":"215925690","DECAY_DATE":null,"SITE":"AFETR","OBJECT_TYPE":"PAYLOAD","EPOCH":"2022-10-22T19:49:41.682432","REV_AT_EPOCH":"9189","RCS_SIZE":"LARGE","BSTAR":"-0.00007994000000","TLE_LINE2":"2 47725  53.0555 340.6551 0002030  40.7719 319.3422 15.06392484 91890","RA_OF_ASC_NODE":"340.6551","TIME_SYSTEM":"UTC","CLASSIFICATION_TYPE":"U","ECCENTRICITY":"0.00020300","PERIOD":"95.593","EPHEMERIS_TYPE":"0","SEMIMAJOR_AXIS":"6925.372","ELEMENT_SET_NO":"999","TLE_LINE1":"1 47725U 21017D   22295.82617688 -.00001472  00000-0 -79940-4 0  9991","INCLINATION":"53.0555","LAUNCH_DATE":"2021-03-04","ARG_OF_PERICENTER":"40.7719","OBJECT_ID":"2021-017D","MEAN_MOTION_DOT":"-0.00001472","MEAN_ELEMENT_THEORY":"SGP4","MEAN_MOTION_DDOT":"0.0000000000000"},{"GP_ID":"215891741","COUNTRY_CODE":"US","DECAY_DATE":null,"SITE":"AFETR","OBJECT_TYPE":"PAYLOAD","EPOCH":"2022-10-22T09:55:13.516896","REV_AT_EPOCH":"9182","RCS_SIZE":"MEDIUM","TLE_LINE2":"2 47726  53.0569 342.5086 0002324  35.9824 324.1321 15.06396420 91828","BSTAR":"0.00004828000000","RA_OF_ASC_NODE":"342.5086","TIME_SYSTEM":"UTC","ECCENTRICITY":"0.00023240","CLASSIFICATION_TYPE":"U","CENTER_NAME":"EARTH","APOAPSIS":"548.834","REF_FRAME":"TEME","OBJECT_NAME":"STARLINK-2126","PERIAPSIS":"545.615","MEAN_ANOMALY":"324.1321","MEAN_MOTION":"15.06396420","NORAD_CAT_ID":"47726","FILE":"3629476","MEAN_MOTION_DOT":"0.00000437","OBJECT_ID":"2021-017E","MEAN_ELEMENT_THEORY":"SGP4","MEAN_MOTION_DDOT":"0.0000000000000","PERIOD":"95.592","EPHEMERIS_TYPE":"0","SEMIMAJOR_AXIS":"6925.360","TLE_LINE1":"1 47726U 21017E   22295.41335089  .00000437  00000-0  48280-4 0  9990","ELEMENT_SET_NO":"999","INCLINATION":"53.0569","ARG_OF_PERICENTER":"35.9824","LAUNCH_DATE":"2021-03-04"},{"SEMIMAJOR_AXIS":"6925.313","ELEMENT_SET_NO":"999","TLE_LINE1":"1 47727U 21017F   22295.62987337  .00001491  00000-0  11894-3 0  9994","PERIOD":"95.591","EPHEMERIS_TYPE":"0","INCLINATION":"53.0526","LAUNCH_DATE":"2021-03-04","ARG_OF_PERICENTER":"43.8476","MEAN_ELEMENT_THEORY":"SGP4","MEAN_MOTION_DOT":"0.00001491","OBJECT_ID":"2021-017F","MEAN_MOTION_DDOT":"0.0000000000000","APOAPSIS":"548.681","CENTER_NAME":"EARTH","MEAN_MOTION":"15.06411464","MEAN_ANOMALY":"316.2685","PERIAPSIS":"545.676","OBJECT_NAME":"STARLINK-2129","FILE":"3629797","NORAD_CAT_ID":"47727","REF_FRAME":"TEME","EPOCH":"2022-10-22T15:07:01.059168","REV_AT_EPOCH":"9301","RCS_SIZE":"LARGE","COUNTRY_CODE":"US","GP_ID":"215924188","DECAY_DATE":null,"OBJECT_TYPE":"PAYLOAD","SITE":"AFETR","TIME_SYSTEM":"UTC","RA_OF_ASC_NODE":"261.5421","CLASSIFICATION_TYPE":"U","ECCENTRICITY":"0.00021700","BSTAR":"0.00011894000000","TLE_LINE2":"2 47727  53.0526 261.5421 0002170  43.8476 316.2685 15.06411464 93019"},{"APOAPSIS":"548.322","CENTER_NAME":"EARTH","REF_FRAME":"TEME","MEAN_ANOMALY":"313.8808","MEAN_MOTION":"15.06400122","PERIAPSIS":"546.104","OBJECT_NAME":"STARLINK-2131","FILE":"3629797","NORAD_CAT_ID":"47728","COUNTRY_CODE":"US","GP_ID":"215924939","DECAY_DATE":null,"SITE":"AFETR","OBJECT_TYPE":"PAYLOAD","EPOCH":"2022-10-22T20:26:50.811936","REV_AT_EPOCH":"9195","RCS_SIZE":"LARGE","BSTAR":"0.00006754100000","TLE_LINE2":"2 47728  53.0555 340.5301 0001601  46.2313 313.8808 15.06400122 91952","RA_OF_ASC_NODE":"340.5301","TIME_SYSTEM":"UTC","CLASSIFICATION_TYPE":"U","ECCENTRICITY":"0.00016010","PERIOD":"95.592","EPHEMERIS_TYPE":"0","SEMIMAJOR_AXIS":"6925.348","TLE_LINE1":"1 47728U 21017G   22295.85197699  .00000725  00000-0  67541-4 0  9994","ELEMENT_SET_NO":"999","INCLINATION":"53.0555","LAUNCH_DATE":"2021-03-04","ARG_OF_PERICENTER":"46.2313","MEAN_MOTION_DOT":"0.00000725","OBJECT_ID":"2021-017G","MEAN_ELEMENT_THEORY":"SGP4","MEAN_MOTION_DDOT":"0.0000000000000"},{"MEAN_ELEMENT_THEORY":"SGP4","MEAN_MOTION_DOT":"0.00000865","OBJECT_ID":"2021-017H","MEAN_MOTION_DDOT":"0.0000000000000","ELEMENT_SET_NO":"999","TLE_LINE1":"1 47729U 21017H   22295.68197901  .00000865  00000-0  76973-4 0  9996","SEMIMAJOR_AXIS":"6925.337","EPHEMERIS_TYPE":"0","PERIOD":"95.592","LAUNCH_DATE":"2021-03-04","ARG_OF_PERICENTER":"55.5954","INCLINATION":"53.0551","RCS_SIZE":"LARGE","REV_AT_EPOCH":"9263","EPOCH":"2022-10-22T16:22:02.986464","DECAY_DATE":null,"SITE":"AFETR","OBJECT_TYPE":"PAYLOAD","COUNTRY_CODE":"US","GP_ID":"215925190","CLASSIFICATION_TYPE":"U","ECCENTRICITY":"0.00020400","RA_OF_ASC_NODE":"286.5063","TIME_SYSTEM":"UTC","BSTAR":"0.00007697300000","TLE_LINE2":"2 47729  53.0551 286.5063 0002040  55.5954 304.5228 15.06403752 92636","CENTER_NAME":"EARTH","APOAPSIS":"548.615","FILE":"3629797","NORAD_CAT_ID":"47729","MEAN_ANOMALY":"304.5228","MEAN_MOTION":"15.06403752","PERIAPSIS":"545.789","OBJECT_NAME":"STARLINK-2132","REF_FRAME":"TEME"},{"INCLINATION":"53.0560","LAUNCH_DATE":"2021-03-04","ARG_OF_PERICENTER":"38.6165","SEMIMAJOR_AXIS":"6925.356","ELEMENT_SET_NO":"999","TLE_LINE1":"1 47730U 21017J   22295.41013240 -.00000345  00000-0 -42557-5 0  9999","PERIOD":"95.592","EPHEMERIS_TYPE":"0","MEAN_MOTION_DDOT":"0.0000000000000","MEAN_ELEMENT_THEORY":"SGP4","OBJECT_ID":"2021-017J","MEAN_MOTION_DOT":"-0.00000345","MEAN_ANOMALY":"321.4968","MEAN_MOTION":"15.06397412","OBJECT_NAME":"STARLINK-2140","PERIAPSIS":"545.820","FILE":"3629476","NORAD_CAT_ID":"47730","REF_FRAME":"TEME","APOAPSIS":"548.623","CENTER_NAME":"EARTH","RA_OF_ASC_NODE":"357.5221","TIME_SYSTEM":"UTC","CLASSIFICATION_TYPE":"U","ECCENTRICITY":"0.00020240","BSTAR":"-0.00000425570000","TLE_LINE2":"2 47730  53.0560 357.5221 0002024  38.6165 321.4968 15.06397412 91623","EPOCH":"2022-10-22T09:50:35.439360","REV_AT_EPOCH":"9162","RCS_SIZE":"LARGE","COUNTRY_CODE":"US","GP_ID":"215891241","SITE":"AFETR","DECAY_DATE":null,"OBJECT_TYPE":"PAYLOAD"},{"OBJECT_ID":"2021-017K","MEAN_MOTION_DOT":"-0.00000171","MEAN_ELEMENT_THEORY":"SGP4","MEAN_MOTION_DDOT":"0.0000000000000","PERIOD":"95.592","EPHEMERIS_TYPE":"0","SEMIMAJOR_AXIS":"6925.366","TLE_LINE1":"1 47731U 21017K   22295.88055436 -.00000171  00000-0  74552-5 0  9990","ELEMENT_SET_NO":"999","INCLINATION":"53.0561","LAUNCH_DATE":"2021-03-04","ARG_OF_PERICENTER":"48.1744","COUNTRY_CODE":"US","GP_ID":"215924689","DECAY_DATE":null,"OBJECT_TYPE":"PAYLOAD","SITE":"AFETR","EPOCH":"2022-10-22T21:07:59.896704","REV_AT_EPOCH":"9177","RCS_SIZE":"LARGE","BSTAR":"0.00000745520000","TLE_LINE2":"2 47731  53.0561 350.4144 0001948  48.1744 311.9412 15.06394380 91779","TIME_SYSTEM":"UTC","RA_OF_ASC_NODE":"350.4144","CLASSIFICATION_TYPE":"U","ECCENTRICITY":"0.00019480","CENTER_NAME":"EARTH","APOAPSIS":"548.580","REF_FRAME":"TEME","MEAN_ANOMALY":"311.9412","MEAN_MOTION":"15.06394380","PERIAPSIS":"545.882","OBJECT_NAME":"STARLINK-2141","FILE":"3629797","NORAD_CAT_ID":"47731"},{"FILE":"3629797","NORAD_CAT_ID":"47732","MEAN_ANOMALY":"302.4950","MEAN_MOTION":"15.06402909","PERIAPSIS":"545.976","OBJECT_NAME":"STARLINK-2142","REF_FRAME":"TEME","CENTER_NAME":"EARTH","APOAPSIS":"548.433","CLASSIFICATION_TYPE":"U","ECCENTRICITY":"0.00017740","TIME_SYSTEM":"UTC","RA_OF_ASC_NODE":"266.6690","BSTAR":"0.00005686100000","TLE_LINE2":"2 47732  53.0550 266.6690 0001774  57.6210 302.4950 15.06402909 92929","RCS_SIZE":"LARGE","REV_AT_EPOCH":"9292","EPOCH":"2022-10-22T15:42:15.132384","DECAY_DATE":null,"SITE":"AFETR","OBJECT_TYPE":"PAYLOAD","GP_ID":"215924439","COUNTRY_CODE":"US","LAUNCH_DATE":"2021-03-04","ARG_OF_PERICENTER":"57.6210","INCLINATION":"53.0550","ELEMENT_SET_NO":"999","TLE_LINE1":"1 47732U 21017L   22295.65434181  .00000565  00000-0  56861-4 0  9992","SEMIMAJOR_AXIS":"6925.340","EPHEMERIS_TYPE":"0","PERIOD":"95.592","MEAN_MOTION_DDOT":"0.0000000000000","MEAN_ELEMENT_THEORY":"SGP4","OBJECT_ID":"2021-017L","MEAN_MOTION_DOT":"0.00000565"}];
